NORAD_CAT_ID,OBJECT_NAME,OBJECT_TYPE,EPOCH,MEAN_MOTION,ECCENTRICITY,INCLINATION,RA_OF_ASC_NODE,ARG_OF_PERICENTER,MEAN_ANOMALY,BSTAR,MEAN_MOTION_DOT,MEAN_MOTION_DDOT,TLE_LINE0,TLE_LINE1,TLE_LINE2,SEMIMAJOR_AXIS,PERIOD,APOGEE,PERIGEE,DECAYED
52838.0,STARLINK-4092,PAYLOAD,2023-01-24 07:05:52,15.08842794,9.57e-05,53.212,113.5609,99.0907,261.0194,0.00091537,0.00014311,0.0,0 STARLINK-4092,1 52838U 22062J   23024.29575032  .00014311  00000-0  91537-3 0  9990,2 52838  53.2120 113.5609 0000957  99.0907 261.0194 15.08842794 34111,6917.871999999999,95.437,540.399,539.075,0.0
52838.0,STARLINK-4092,PAYLOAD,2023-01-25 05:21:17,15.08833893,0.0001262999999999,53.215,109.4,92.0159,268.0978,0.00013404,1.846e-05,0.0,0 STARLINK-4092,1 52838U 22062J   23025.22311597  .00001846  00000-0  13404-3 0  9994,2 52838  53.2150 109.4000 0001263  92.0159 268.0978 15.08833893 34258,6917.899,95.438,540.638,538.89,0.0
52838.0,STARLINK-4092,PAYLOAD,2023-01-25 11:42:49,15.08836735,0.0001193999999999,53.2148,108.2098,89.0268,271.0861,0.00018976,2.733e-05,0.0,0 STARLINK-4092,1 52838U 22062J   23025.48807731  .00002733  00000-0  18976-3 0  9997,2 52838  53.2148 108.2098 0001194  89.0268 271.0861 15.08836735 33802,6917.89,95.438,540.581,538.929,0.0
52838.0,STARLINK-4092,PAYLOAD,2023-01-26 08:22:50,15.08852338,0.0001200999999999,53.2141,104.3429,88.0692,272.0437,0.00050819,7.812e-05,0.0,0 STARLINK-4092,1 52838U 22062J   23026.34919353  .00007812  00000-0  50819-3 0  9992,2 52838  53.2141 104.3429 0001201  88.0692 272.0437 15.08852338 34425,6917.843000000001,95.437,540.539,538.877,0.0
52838.0,STARLINK-4092,PAYLOAD,2023-01-26 13:08:59,15.08862317,0.0001291,53.2132,103.45,87.0937,273.0203,0.00079939,0.00012465,0.0,0 STARLINK-4092,1 52838U 22062J   23026.54791063  .00012465  00000-0  79939-3 0  9994,2 52838  53.2132 103.4500 0001291  87.0937 273.0203 15.08862317 33963,6917.812,95.436,540.57,538.784,0.0
52838.0,STARLINK-4092,PAYLOAD,2023-01-27 05:02:50,15.08851255,0.0001551999999999,53.2138,100.4703,133.7214,226.3906,-1.9153e-05,-5.93e-06,0.0,0 STARLINK-4092,1 52838U 22062J   23027.21030594 -.00000593  00000-0 -19153-4 0  9998,2 52838  53.2138 100.4703 0001552 133.7214 226.3906 15.08851255 34554,6917.846,95.437,540.785,538.637,0.0
52838.0,STARLINK-4092,PAYLOAD,2023-01-27 12:59:46,15.0885352,0.0001309,53.2135,98.9871,110.5839,249.5293,0.00020194,2.929e-05,0.0,0 STARLINK-4092,1 52838U 22062J   23027.54150559  .00002929  00000-0  20194-3 0  9997,2 52838  53.2135  98.9871 0001309 110.5839 249.5293 15.08853520 34119,6917.839,95.437,540.61,538.799,0.0
52838.0,STARLINK-4092,PAYLOAD,2023-01-28 04:53:37,15.08838074,0.0001341999999999,53.2133,96.0143,109.8559,250.2578,-3.387e-05,-8.27e-06,0.0,0 STARLINK-4092,1 52838U 22062J   23028.20391075 -.00000827  00000-0 -33870-4 0  9994,2 52838  53.2133  96.0143 0001342 109.8559 250.2578 15.08838074 34702,6917.886,95.438,540.68,538.823,0.0
52838.0,STARLINK-4092,PAYLOAD,2023-01-28 11:15:10,15.08839022,0.0001398,53.2136,94.8247,111.6509,248.4632,0.00029053,4.339e-05,0.0,0 STARLINK-4092,1 52838U 22062J   23028.46887182  .00004339  00000-0  29053-3 0  9998,2 52838  53.2136  94.8247 0001398 111.6509 248.4632 15.08839022 34257,6917.883,95.438,540.715,538.781,0.0
52838.0,STARLINK-4092,PAYLOAD,2023-01-28 20:47:29,15.08838001,0.0001364,53.2135,93.0414,106.8057,253.3084,0.00037613,5.703e-05,0.0,0 STARLINK-4092,1 52838U 22062J   23028.86631454  .00005703  00000-0  37613-3 0  9998,2 52838  53.2135  93.0414 0001364 106.8057 253.3084 15.08838001 34319,6917.886,95.438,540.695,538.808,0.0
52838.0,STARLINK-4092,PAYLOAD,2023-01-29 12:41:21,15.08840078,0.0001398,53.2152,90.0696,105.2555,254.8592,0.00016378,2.32e-05,0.0,0 STARLINK-4092,1 52838U 22062J   23029.52871588  .00002320  00000-0  16378-3 0  9993,2 52838  53.2152  90.0696 0001398 105.2555 254.8592 15.08840078 34902,6917.88,95.438,540.712,538.778,0.0
52838.0,STARLINK-4092,PAYLOAD,2023-01-29 20:38:16,15.08835262,0.0001258,53.2148,88.5794,97.8724,262.2411,0.00010065,1.314e-05,0.0,0 STARLINK-4092,1 52838U 22062J   23029.85991765  .00001314  00000-0  10065-3 0  9998,2 52838  53.2148  88.5794 0001258  97.8724 262.2411 15.08835262 34460,6917.895,95.438,540.63,538.89,0.0
52838.0,STARLINK-4092,PAYLOAD,2023-01-30 04:35:12,15.08831912,0.0001243,53.2138,87.0934,104.9929,255.1201,1.8285e-06,-2.59e-06,0.0,0 STARLINK-4092,1 52838U 22062J   23030.19112061 -.00000259  00000-0  18285-5 0  9993,2 52838  53.2138  87.0934 0001243 104.9929 255.1201 15.08831912 35007,6917.905,95.438,540.63,538.91,0.0
52838.0,STARLINK-4092,PAYLOAD,2023-01-30 10:56:45,15.0883708,0.0001256,53.2143,85.9041,106.5349,253.5781,9.5677e-05,1.235e-05,0.0,0 STARLINK-4092,1 52838U 22062J   23030.45607967  .00001235  00000-0  95677-4 0  9999,2 52838  53.2143  85.9041 0001256 106.5349 253.5781 15.08837080 34553,6917.889,95.438,540.623,538.885,0.0
52838.0,STARLINK-4092,PAYLOAD,2023-01-30 20:29:04,15.08839574,0.0001304,53.2143,84.1201,87.8439,272.2703,0.00010626,1.404e-05,0.0,0 STARLINK-4092,1 52838U 22062J   23030.85351996  .00001404  00000-0  10626-3 0  9999,2 52838  53.2143  84.1201 0001304  87.8439 272.2703 15.08839574 34616,6917.882,95.438,540.649,538.845,0.0
52838.0,STARLINK-4092,PAYLOAD,2023-01-31 12:22:55,15.08844777,0.0001181,53.2146,81.1464,92.3086,267.8041,0.00017484,2.496e-05,0.0,0 STARLINK-4092,1 52838U 22062J   23031.51591848  .00002496  00000-0  17484-3 0  9996,2 52838  53.2146  81.1464 0001181  92.3086 267.8041 15.08844777 35201,6917.866,95.437,540.548,538.914,0.0
52838.0,STARLINK-4092,PAYLOAD,2023-01-31 20:19:51,15.08841279,0.0001089,53.2145,79.6592,84.7872,275.3245,0.00010984,1.461e-05,0.0,0 STARLINK-4092,1 52838U 22062J   23031.84711983  .00001461  00000-0  10984-3 0  9995,2 52838  53.2145  79.6592 0001089  84.7872 275.3245 15.08841279 34763,6917.876,95.437,540.495,538.988,0.0
52838.0,STARLINK-4092,PAYLOAD,2023-02-01 02:41:23,15.0883951,0.0001151,53.2148,78.47,85.4158,274.6966,0.0001356,1.871e-05,0.0,0 STARLINK-4092,1 52838U 22062J   23032.11208150  .00001871  00000-0  13560-3 0  9991,2 52838  53.2148  78.4700 0001151  85.4158 274.6966 15.08839510 35295,6917.882,95.438,540.543,538.951,0.0
52838.0,STARLINK-4092,PAYLOAD,2023-02-01 12:13:42,15.08848234,0.0001183,53.214,76.6853,82.435,277.6776,0.00017795,2.546e-05,0.0,0 STARLINK-4092,1 52838U 22062J   23032.50951637  .00002546  00000-0  17795-3 0  9993,2 52838  53.2140  76.6853 0001183  82.4350 277.6776 15.08848234 34869,6917.855,95.437,540.539,538.902,0.0
52838.0,STARLINK-4092,PAYLOAD,2023-02-02 02:32:11,15.0883555,9.69e-05,53.2146,74.0091,86.0759,274.0344,1.4008e-05,-6.5e-07,0.0,0 STARLINK-4092,1 52838U 22062J   23033.10568315 -.00000065  00000-0  14008-4 0  9997,2 52838  53.2146  74.0091 0000969  86.0759 274.0344 15.08835550 35449,6917.894,95.438,540.429,539.089,0.0
52838.0,STARLINK-4092,PAYLOAD,2023-02-02 12:04:29,15.08843002,0.0001148,53.214,72.2252,72.226,287.8858,0.00010906,1.448e-05,0.0,0 STARLINK-4092,1 52838U 22062J   23033.50312092  .00001448  00000-0  10906-3 0  9997,2 52838  53.2140  72.2252 0001148  72.2260 287.8858 15.08843002 35012,6917.871,95.437,540.53,538.942,0.0
52838.0,STARLINK-4092,PAYLOAD,2023-02-02 13:39:52,15.08846511,0.0001339,53.2148,71.9277,74.9502,285.1638,0.00012821,1.753e-05,0.0,0 STARLINK-4092,1 52838U 22062J   23033.56935929  .00001753  00000-0  12821-3 0  9990,2 52838  53.2148  71.9277 0001339  74.9502 285.1638 15.08846511 35513,6917.86,95.437,540.652,538.799,0.0
52838.0,STARLINK-4092,PAYLOAD,2023-02-03 05:33:44,15.08837933,0.0001232,53.2131,68.954,86.087,274.0263,3.7944e-05,3.16e-06,0.0,0 STARLINK-4092,1 52838U 22062J   23034.23176364  .00000316  00000-0  37944-4 0  9993,2 52838  53.2131  68.9540 0001232  86.0870 274.0263 15.08837933 35618,6917.887,95.438,540.604,538.899,0.0
52838.0,STARLINK-4092,PAYLOAD,2023-02-03 11:55:16,15.08847212,0.0001162,53.214,67.7624,97.0088,263.1036,5.5166e-05,5.9e-06,0.0,0 STARLINK-4092,1 52838U 22062J   23034.49671701  .00000590  00000-0  55166-4 0  9996,2 52838  53.2140  67.7624 0001162  97.0088 263.1036 15.08847212 35655,6917.858,95.437,540.527,538.919,0.0
52838.0,STARLINK-4092,PAYLOAD,2023-02-04 06:59:52,15.08874257,0.0001547,53.2148,64.1941,111.6249,248.4908,0.00050689,7.796e-05,0.0,0 STARLINK-4092,1 52838U 22062J   23035.29158022  .00007796  00000-0  50689-3 0  9990,2 52838  53.2148  64.1941 0001547 111.6249 248.4908 15.08874257 35771,6917.776,95.435,540.711,538.571,0.0
52838.0,STARLINK-4092,PAYLOAD,2023-02-04 11:46:01,15.0888297,0.0001133,53.214,63.3016,96.7569,263.3552,0.0005859,9.06e-05,0.0,0 STARLINK-4092,1 52838U 22062J   23035.49029141  .00009060  00000-0  58590-3 0  9996,2 52838  53.2140  63.3016 0001133  96.7569 263.3552 15.08882970 35318,6917.749,95.435,540.398,538.83,0.0
52838.0,STARLINK-4092,PAYLOAD,2023-02-05 05:15:17,15.08839703,0.0001107,53.2157,60.0321,92.3293,267.7826,-2.3815e-05,-6.67e-06,0.0,0 STARLINK-4092,1 52838U 22062J   23036.21895443 -.00000667  00000-0 -23815-4 0  9992,2 52838  53.2157  60.0321 0001107  92.3293 267.7826 15.08839703 35910,6917.881,95.438,540.512,538.98,0.0
52838.0,STARLINK-4092,PAYLOAD,2023-02-05 11:36:50,15.08838059,0.0001207,53.2155,58.8421,97.4467,262.6662,-3.8555e-05,-9.01e-06,0.0,0 STARLINK-4092,1 52838U 22062J   23036.48391533 -.00000901  00000-0 -38555-4 0  9990,2 52838  53.2155  58.8421 0001207  97.4467 262.6662 15.08838059 35469,6917.886,95.438,540.586,538.916,0.0
52838.0,STARLINK-4092,PAYLOAD,2023-02-05 17:58:23,15.08831552,0.0001199,53.2151,57.6525,90.8457,269.2673,-0.0001023,-1.915e-05,0.0,0 STARLINK-4092,1 52838U 22062J   23036.74888160 -.00001915  00000-0 -10230-3 0  9991,2 52838  53.2151  57.6525 0001199  90.8457 269.2673 15.08831552 35997,6917.906,95.438,540.601,538.942,0.0
52838.0,STARLINK-4092,PAYLOAD,2023-02-06 11:27:37,15.08844987,0.0001289,53.2154,54.3821,84.4437,275.6703,-0.00029566,-4.991e-05,0.0,0 STARLINK-4092,1 52838U 22062J   23037.47751950 -.00004991  00000-0 -29566-3 0  9997,2 52838  53.2154  54.3821 0001289  84.4437 275.6703 15.08844987 36105,6917.865,95.437,540.622,538.838,0.0
